start=new Date('2023-01-16T00:00:00.000Z').valueOf();
sats=[{"REV_AT_EPOCH":"2748","NORAD_CAT_ID":"53269","MEAN_ANOMALY":"287.0249","RCS_SIZE":"LARGE","BSTAR":"0.00169490000000","CENTER_NAME":"EARTH","MEAN_ELEMENT_THEORY":"SGP4","TLE_LINE1":"1 53269U 22086AD  23015.18033589  .00026808  00000-0  16949-2 0  9996","RA_OF_ASC_NODE":"304.4662","SITE":"AFETR","GP_ID":"223037443","TIME_SYSTEM":"UTC","PERIAPSIS":"538.470","INCLINATION":"53.2162","APOAPSIS":"540.866","OBJECT_ID":"2022-086AD","EPOCH":"2023-01-15T04:19:41.020896","FILE":"3745666","MEAN_MOTION":"15.08865330","ELEMENT_SET_NO":"999","ECCENTRICITY":"0.00017320","OBJECT_TYPE":"PAYLOAD","MEAN_MOTION_DDOT":"0.0000000000000","REF_FRAME":"TEME","COUNTRY_CODE":"US","SEMIMAJOR_AXIS":"6917.803","PERIOD":"95.436","TLE_LINE2":"2 53269  53.2162 304.4662 0001732  73.0933 287.0249 15.08865330 27481","CLASSIFICATION_TYPE":"U","EPHEMERIS_TYPE":"0","LAUNCH_DATE":"2022-07-24","OBJECT_NAME":"STARLINK-4057","DECAY_DATE":null,"ARG_OF_PERICENTER":"73.0933","MEAN_MOTION_DOT":"0.00026808"},{"TLE_LINE2":"2 53271  53.2144 303.0190 0001160  75.3866 284.7255 15.08839592 27538","CLASSIFICATION_TYPE":"U","EPHEMERIS_TYPE":"0","OBJECT_NAME":"STARLINK-4069","LAUNCH_DATE":"2022-07-24","DECAY_DATE":null,"MEAN_MOTION_DOT":"-0.00000141","ARG_OF_PERICENTER":"75.3866","MEAN_MOTION":"15.08839592","ELEMENT_SET_NO":"999","MEAN_MOTION_DDOT":"0.0000000000000","OBJECT_TYPE":"PAYLOAD","ECCENTRICITY":"0.00011600","REF_FRAME":"TEME","SEMIMAJOR_AXIS":"6917.882","COUNTRY_CODE":"US","PERIOD":"95.438","GP_ID":"223116381","TIME_SYSTEM":"UTC","INCLINATION":"53.2144","PERIAPSIS":"538.944","OBJECT_ID":"2022-086AF","APOAPSIS":"540.549","EPOCH":"2023-01-15T12:06:01.211616","FILE":"3747812","REV_AT_EPOCH":"2753","MEAN_ANOMALY":"284.7255","NORAD_CAT_ID":"53271","RCS_SIZE":"LARGE","BSTAR":"0.00000920120000","MEAN_ELEMENT_THEORY":"SGP4","CENTER_NAME":"EARTH","TLE_LINE1":"1 53271U 22086AF  23015.50418069 -.00000141  00000-0  92012-5 0  9996","RA_OF_ASC_NODE":"303.0190","SITE":"AFETR"},{"BSTAR":"0.00015642000000","MEAN_ELEMENT_THEORY":"SGP4","CENTER_NAME":"EARTH","SITE":"AFETR","TLE_LINE1":"1 53272U 22086AG  23015.78017294  .00002204  00000-0  15642-3 0  9995","RA_OF_ASC_NODE":"301.7695","REV_AT_EPOCH":"2775","MEAN_ANOMALY":"273.6497","NORAD_CAT_ID":"53272","RCS_SIZE":"LARGE","OBJECT_ID":"2022-086AG","APOAPSIS":"540.559","EPOCH":"2023-01-15T18:43:26.942016","FILE":"3748322","GP_ID":"223151520","TIME_SYSTEM":"UTC","INCLINATION":"53.2148","PERIAPSIS":"538.827","REF_FRAME":"TEME","COUNTRY_CODE":"US","SEMIMAJOR_AXIS":"6917.828","PERIOD":"95.436","MEAN_MOTION":"15.08857099","ELEMENT_SET_NO":"999","OBJECT_TYPE":"PAYLOAD","MEAN_MOTION_DDOT":"0.0000000000000","ECCENTRICITY":"0.00012520","OBJECT_NAME":"STARLINK-4122","LAUNCH_DATE":"2022-07-24","DECAY_DATE":null,"ARG_OF_PERICENTER":"86.4638","MEAN_MOTION_DOT":"0.00002204","TLE_LINE2":"2 53272  53.2148 301.7695 0001252  86.4638 273.6497 15.08857099 27751","CLASSIFICATION_TYPE":"U","EPHEMERIS_TYPE":"0"},{"DECAY_DATE":null,"MEAN_MOTION_DOT":"0.00002325","ARG_OF_PERICENTER":"60.4098","OBJECT_NAME":"STARLINK-4050","LAUNCH_DATE":"2022-07-24","CLASSIFICATION_TYPE":"U","EPHEMERIS_TYPE":"0","TLE_LINE2":"2 53274  53.2159 304.4831 0001603  60.4098 299.7054 15.08844296 27482","COUNTRY_CODE":"US","SEMIMAJOR_AXIS":"6917.867","PERIOD":"95.437","REF_FRAME":"TEME","OBJECT_TYPE":"PAYLOAD","MEAN_MOTION_DDOT":"0.0000000000000","ECCENTRICITY":"0.00016030","MEAN_MOTION":"15.08844296","ELEMENT_SET_NO":"999","FILE":"3745677","OBJECT_ID":"2022-086AJ","APOAPSIS":"540.841","EPOCH":"2023-01-15T04:14:23.678016","INCLINATION":"53.2159","PERIAPSIS":"538.623","GP_ID":"223038406","TIME_SYSTEM":"UTC","MEAN_ELEMENT_THEORY":"SGP4","CENTER_NAME":"EARTH","SITE":"AFETR","TLE_LINE1":"1 53274U 22086AJ  23015.17666294  .00002325  00000-0  16411-3 0  9999","RA_OF_ASC_NODE":"304.4831","BSTAR":"0.00016411000000","RCS_SIZE":"LARGE","REV_AT_EPOCH":"2748","MEAN_ANOMALY":"299.7054","NORAD_CAT_ID":"53274"},{"INCLINATION":"53.2129","PERIAPSIS":"538.403","TIME_SYSTEM":"UTC","GP_ID":"223150791","FILE":"3748322","APOAPSIS":"541.053","OBJECT_ID":"2022-086AK","EPOCH":"2023-01-15T19:47:03.212736","RCS_SIZE":"LARGE","MEAN_ANOMALY":"298.7994","NORAD_CAT_ID":"53275","REV_AT_EPOCH":"2775","SITE":"AFETR","TLE_LINE1":"1 53275U 22086AK  23015.82434274  .00006049  00000-0  39775-3 0  9998","RA_OF_ASC_NODE":"301.5955","MEAN_ELEMENT_THEORY":"SGP4","CENTER_NAME":"EARTH","BSTAR":"0.00039775000000","EPHEMERIS_TYPE":"0","CLASSIFICATION_TYPE":"U","TLE_LINE2":"2 53275  53.2129 301.5955 0001915  61.3190 298.7994 15.08845741 27752","ARG_OF_PERICENTER":"61.3190","MEAN_MOTION_DOT":"0.00006049","DECAY_DATE":null,"OBJECT_NAME":"STARLINK-4179","LAUNCH_DATE":"2022-07-24","OBJECT_TYPE":"PAYLOAD","MEAN_MOTION_DDOT":"0.0000000000000","ECCENTRICITY":"0.00019150","ELEMENT_SET_NO":"999","MEAN_MOTION":"15.08845741","SEMIMAJOR_AXIS":"6917.863","COUNTRY_CODE":"US","PERIOD":"95.437","REF_FRAME":"TEME"},{"COUNTRY_CODE":"US","SEMIMAJOR_AXIS":"6917.823","PERIOD":"95.436","REF_FRAME":"TEME","MEAN_MOTION_DDOT":"0.0000000000000","OBJECT_TYPE":"PAYLOAD","ECCENTRICITY":"0.00013990","ELEMENT_SET_NO":"999","MEAN_MOTION":"15.08858773","MEAN_MOTION_DOT":"0.00008074","ARG_OF_PERICENTER":"104.8926","DECAY_DATE":null,"OBJECT_NAME":"STARLINK-4174","LAUNCH_DATE":"2022-07-24","EPHEMERIS_TYPE":"0","CLASSIFICATION_TYPE":"U","TLE_LINE2":"2 53276  53.2170 303.0372 0001399 104.8926 255.2222 15.08858773 27532","SITE":"AFETR","TLE_LINE1":"1 53276U 22086AL  23015.50049312  .00008074  00000-0  52452-3 0  9996","RA_OF_ASC_NODE":"303.0372","MEAN_ELEMENT_THEORY":"SGP4","CENTER_NAME":"EARTH","BSTAR":"0.00052452000000","RCS_SIZE":"LARGE","MEAN_ANOMALY":"255.2222","NORAD_CAT_ID":"53276","REV_AT_EPOCH":"2753","FILE":"3747812","EPOCH":"2023-01-15T12:00:42.605568","APOAPSIS":"540.656","OBJECT_ID":"2022-086AL","INCLINATION":"53.2170","PERIAPSIS":"538.720","TIME_SYSTEM":"UTC","GP_ID":"223115886"},{"NORAD_CAT_ID":"53280","MEAN_ANOMALY":"353.5690","REV_AT_EPOCH":"2820","RCS_SIZE":"LARGE","BSTAR":"0.00022278000000","SITE":"AFETR","TLE_LINE1":"1 53280U 22086AQ  23015.87241816  .00014644  00000-0  22278-3 0  9997","RA_OF_ASC_NODE":"270.1094","CENTER_NAME":"EARTH","MEAN_ELEMENT_THEORY":"SGP4","TIME_SYSTEM":"UTC","GP_ID":"223151278","PERIAPSIS":"401.934","INCLINATION":"53.2163","APOAPSIS":"403.496","EPOCH":"2023-01-15T20:56:16.929024","OBJECT_ID":"2022-086AQ","FILE":"3748322","ELEMENT_SET_NO":"999","MEAN_MOTION":"15.54807286","ECCENTRICITY":"0.00011520","MEAN_MOTION_DDOT":"0.0000000000000","OBJECT_TYPE":"PAYLOAD","REF_FRAME":"TEME","COUNTRY_CODE":"US","SEMIMAJOR_AXIS":"6780.850","PERIOD":"92.616","TLE_LINE2":"2 53280  53.2163 270.1094 0001152   6.5337 353.5690 15.54807286 28205","EPHEMERIS_TYPE":"0","CLASSIFICATION_TYPE":"U","LAUNCH_DATE":"2022-07-24","OBJECT_NAME":"STARLINK-4169","MEAN_MOTION_DOT":"0.00014644","ARG_OF_PERICENTER":"6.5337","DECAY_DATE":null},{"FILE":"3748322","APOAPSIS":"541.429","EPOCH":"2023-01-15T20:55:56.382240","OBJECT_ID":"2022-086AR","INCLINATION":"53.2153","PERIAPSIS":"537.993","GP_ID":"223151521","TIME_SYSTEM":"UTC","MEAN_ELEMENT_THEORY":"SGP4","CENTER_NAME":"EARTH","SITE":"AFETR","TLE_LINE1":"1 53281U 22086AR  23015.87218035  .00003200  00000-0  21903-3 0  9995","RA_OF_ASC_NODE":"301.3607","BSTAR":"0.00021903000000","RCS_SIZE":"LARGE","REV_AT_EPOCH":"2776","MEAN_ANOMALY":"282.3320","NORAD_CAT_ID":"53281","DECAY_DATE":null,"MEAN_MOTION_DOT":"0.00003200","ARG_OF_PERICENTER":"77.7950","OBJECT_NAME":"STARLINK-4182","LAUNCH_DATE":"2022-07-24","CLASSIFICATION_TYPE":"U","EPHEMERIS_TYPE":"0","TLE_LINE2":"2 53281  53.2153 301.3607 0002484  77.7950 282.3320 15.08851240 27769","SEMIMAJOR_AXIS":"6917.846","COUNTRY_CODE":"US","PERIOD":"95.437","REF_FRAME":"TEME","OBJECT_TYPE":"PAYLOAD","MEAN_MOTION_DDOT":"0.0000000000000","ECCENTRICITY":"0.00024840","MEAN_MOTION":"15.08851240","ELEMENT_SET_NO":"999"},{"OBJECT_NAME":"STARLINK-4164","LAUNCH_DATE":"2022-07-24","MEAN_MOTION_DOT":"0.00005387","ARG_OF_PERICENTER":"69.8071","DECAY_DATE":null,"TLE_LINE2":"2 53282  53.2164 301.6327 0001404  69.8071 290.3072 15.08839078 27758","EPHEMERIS_TYPE":"0","CLASSIFICATION_TYPE":"U","REF_FRAME":"TEME","COUNTRY_CODE":"US","SEMIMAJOR_AXIS":"6917.883","PERIOD":"95.438","ELEMENT_SET_NO":"999","MEAN_MOTION":"15.08839078","MEAN_MOTION_DDOT":"0.0000000000000","OBJECT_TYPE":"PAYLOAD","ECCENTRICITY":"0.00014040","APOAPSIS":"540.719","OBJECT_ID":"2022-086AS","EPOCH":"2023-01-15T19:31:08.994720","FILE":"3748322","TIME_SYSTEM":"UTC","GP_ID":"223151761","INCLINATION":"53.2164","PERIAPSIS":"538.777","BSTAR":"0.00035629000000","TLE_LINE1":"1 53282U 22086AS  23015.81329855  .00005387  00000-0  35629-3 0  9991","SITE":"AFETR","RA_OF_ASC_NODE":"301.6327","MEAN_ELEMENT_THEORY":"SGP4","CENTER_NAME":"EARTH","MEAN_ANOMALY":"290.3072","NORAD_CAT_ID":"53282","REV_AT_EPOCH":"2775","RCS_SIZE":"LARGE"},{"RA_OF_ASC_NODE":"301.0762","TLE_LINE1":"1 53283U 22086AT  23015.93475038 -.00001215  00000-0 -58261-4 0  9996","SITE":"AFETR","CENTER_NAME":"EARTH","MEAN_ELEMENT_THEORY":"SGP4","BSTAR":"-0.00005826100000","RCS_SIZE":"LARGE","NORAD_CAT_ID":"53283","MEAN_ANOMALY":"266.2754","REV_AT_EPOCH":"2777","FILE":"3748322","APOAPSIS":"540.886","OBJECT_ID":"2022-086AT","EPOCH":"2023-01-15T22:26:02.432832","PERIAPSIS":"538.656","INCLINATION":"53.2203","TIME_SYSTEM":"UTC","GP_ID":"223150550","SEMIMAJOR_AXIS":"6917.906","COUNTRY_CODE":"US","PERIOD":"95.438","REF_FRAME":"TEME","ECCENTRICITY":"0.00016120","MEAN_MOTION_DDOT":"0.0000000000000","OBJECT_TYPE":"PAYLOAD","ELEMENT_SET_NO":"999","MEAN_MOTION":"15.08831638","MEAN_MOTION_DOT":"-0.00001215","ARG_OF_PERICENTER":"93.8422","DECAY_DATE":null,"LAUNCH_DATE":"2022-07-24","OBJECT_NAME":"STARLINK-4175","EPHEMERIS_TYPE":"0","CLASSIFICATION_TYPE":"U","TLE_LINE2":"2 53283  53.2203 301.0762 0001612  93.8422 266.2754 15.08831638 27773"}];
